#aV2022  1 10  0  0  0.00000000     288 DD+AD WGS84 FIT  NGA
## 2192  86400.00000000   300.00000000 59589 0.0000000000000
+   32     1  2  3  4  5  6  7  8  9 10 11 12 13 14 15 16 17
+         18 19 20 21 22 23 24 25 26 27 28 29 30 31 32  0  0
+          0  0  0  0  0  0  0  0  0  0  0  0  0  0  0  0  0
+          0  0  0  0  0  0  0  0  0  0  0  0  0  0  0  0  0
+          0  0  0  0  0  0  0  0  0  0  0  0  0  0  0  0  0
++         2  2  2  2  2  2  2  2  2  2  2  2  2  2  2  2  2
++         2  2  2  2  2  2  2  2  2  2  2  2  2  2  2  0  0
++         0  0  0  0  0  0  0  0  0  0  0  0  0  0  0  0  0
++         0  0  0  0  0  0  0  0  0  0  0  0  0  0  0  0  0
++         0  0  0  0  0  0  0  0  0  0  0  0  0  0  0  0  0
%c cc cc ccc ccc cccc cccc cccc cccc ccccc ccccc ccccc ccccc
%c cc cc ccc ccc cccc cccc cccc cccc ccccc ccccc ccccc ccccc
%f  0.0000000  0.000000000  0.00000000000  0.000000000000000
%f  0.0000000  0.000000000  0.00000000000  0.000000000000000
%i    0    0    0    0      0      0      0      0         0
%i    0    0    0    0      0      0      0      0         0
/*      NGA, ST. LOUIS,MO.                                  
/*   EPHEMERIS COMPUTED FROM 2 DAYS OF DATA                 
/*   EPOCHA v7 SMOOTHER                                     
/*   G2139 IERS2010 SATIGS SATAPC                           
*  2022  1 10 11 55  0.00000000
P  1 -13515.402448  19422.736030  11429.057199    460.986620                    
V  1   2236.938336 -14998.577187  27804.018323     -0.098677                    
P  2  14805.594683   1391.059731 -21350.446968   -648.250198                    
V  2  -5412.821812  28174.118693  -1754.336654     -0.010079                    
P  3 -20382.627385  12996.942471 -10987.064622    -72.816425                    
V  3 -13919.457253   1347.779693  27775.671586     -0.146140                    
P  4 -10547.992964  10988.039128 -21754.921858   -195.585250                    
V  4 -18784.745834 -20262.950066  -1204.375895      0.016821                    
P  5  25903.348948  -4646.788157  -4308.234573    -67.407571                    
V  5  -4255.976131   4065.790560 -31001.812184     -0.013146                    
P  6   7398.732800  17894.804081 -18077.745527    166.858929                    
V  6  -7425.888946  21868.849443  18600.601688      0.108496                    
P  7  -4643.204086  25678.451185   3580.960584    300.348723                    
V  7  -4495.933020   3048.093201 -31411.794066      0.037695                    
P  8 -18379.599111    686.283999  19266.682328    -51.576946                    
V  8 -16665.605587 -17822.710014 -14915.043222     -0.015712                    
P  9    708.937267  19086.381664 -18516.149113   -358.337715                    
V  9 -17813.352362 -15248.577018 -16496.450472      0.011074                    
P 10  -8092.773488 -13211.309049  21741.307860   -290.018134                    
V 10  26262.880777  -7129.301117   5190.181811     -0.095282                    
P 11  14605.575051   4247.910385 -21777.390118    -29.934992                    
V 11  -8815.321942  26196.917657   -816.385368     -0.360188                    
P 12  22575.452380 -10563.148699  -9236.158218   -153.722644                    
V 12  11620.449438    218.920448  29100.027513     -0.056471                    
P 13  19701.066375   8253.201001  15731.678541    243.111245                    
V 13  10706.737245  17192.132794 -22056.330863      0.060028                    
P 14   6986.729065  14032.675270  21442.661326    -68.597758                    
V 14 -26555.019036   6141.663076   4569.762567     -0.054889                    
P 15  18249.061237  -3346.713091  18713.829863    -92.604940                    
V 15  18247.373818  16610.120114 -14190.944177      0.028541                    
P 16 -25847.414601   -816.174504  -7306.610427   -453.573627                    
V 16   8375.480098  -3334.737981 -29888.251559     -0.055205                    
P 17  11822.889808  22337.315517   8539.173226    559.490806                    
V 17  -8195.504209  -6425.190068  29722.542460      0.052277                    
P 18   5019.657358 -25750.692312   3771.130973    263.541703                    
V 18   3840.319674  -3860.788598 -31550.722755     -0.072430                    
P 19  16896.528505  20615.221944   -643.251592    103.706307                    
V 19  -1329.713017   1687.082711  32021.106845      0.049795                    
P 20  22519.297114   1279.787661 -13828.074622    517.238925                    
V 20 -15154.418079   9553.911480 -24062.095360     -0.001783                    
P 21 -15692.950577  10577.492131  19064.892922    155.806089                    
V 21   2833.942961 -22910.480357  16211.801410      0.008239                    
P 22 -24229.391562  10425.805805  -1666.086602   -420.829351                    
V 22  -3499.819707  -2657.198899  31292.850066      0.088862                    
P 23   4970.371769 -16118.115340  20479.669564     12.639071                    
V 23  25292.207332  -6276.832177 -11159.183930     -0.038923                    
P 24  14368.923994 -16185.231415  14827.204976    277.104884                    
V 24   -876.375613  19782.504662  22425.532668      0.002356                    
P 25  12271.601466 -15933.378134 -17481.758248    268.808562                    
V 25  21520.281759  -3786.465475  19133.896975      0.055846                    
P 26 -18653.216834  -7593.807534 -17540.812611    173.092384                    
V 26  20519.481911  -8353.078064 -17977.118538      0.034279                    
P 27 -21466.340288  -9853.471200  12338.637080     60.047341                    
V 27  -9827.261465 -12499.545652 -26291.818203      0.228116                    
P 28  14671.547924  11201.070950  19542.755184    425.072511                    
V 28 -23256.076267   4938.253862  15257.933684     -0.079643                    
P 29   3525.760672 -16801.897398 -20292.734499   -465.493770                    
V 29  17218.922842  19003.453233 -12822.800299     -0.048728                    
P 30   2191.446132  23504.780048  11995.800937   -505.733898                    
V 30  -7393.172618  13732.464453 -25941.683157     -0.026670                    
P 31  -9496.072840 -15591.993056 -19244.809624   -159.268496                    
V 31   8620.843923 -22837.111113  14803.105300     -0.018331                    
P 32 -16079.593763 -20775.345487   4674.611283    -48.293321                    
V 32   5959.226895   2184.846681  30828.474595     -0.059893                    
EOF
